{
  "type": "FeatureCollection",
  "features": [
    {
      "type": "Feature",
      "properties": {
        "norad_id": 43706,
        "name": "BEIDOU-3 M17 (C36)",
        "group": "beidou",
        "lat": -21.72735660218749,
        "lon": 171.88730525573953,
        "alt_km": 21515.552073566163,
        "timestamp": "2025-12-12T22:42:12.811036+00:00",
        "meta_object_name": "BEIDOU-3 M17 (C36)",
        "meta_object_id": "2018-093A",
        "meta_epoch": "2025-12-12T04:17:11.485824",
        "meta_mean_motion": 1.86228421,
        "meta_eccentricity": 0.00062217,
        "meta_inclination": 54.1726,
        "meta_ra_of_asc_node": 188.6407,
        "meta_arg_of_pericenter": 307.45,
        "meta_mean_anomaly": 230.9206,
        "meta_ephemeris_type": 0,
        "meta_classification_type": "U",
        "meta_norad_cat_id": 43706,
        "meta_element_set_no": 999,
        "meta_rev_at_epoch": 4805,
        "meta_bstar": 0,
        "meta_mean_motion_dot": 7.8e-07,
        "meta_mean_motion_ddot": 0,
        "tle_line1": "1 43706U 18093A   25346.17860516  .00000078  00000+0  00000+0 0  9998",
        "tle_line2": "2 43706  54.1726 188.6407 0006221 307.4500 230.9206  1.86228421 48054"
      },
      "geometry": {
        "type": "Point",
        "coordinates": [
          171.88730525573953,
          -21.72735660218749
        ]
      }
    },
    {
      "type": "Feature",
      "properties": {
        "norad_id": 43707,
        "name": "BEIDOU-3 M18 (C37)",
        "group": "beidou",
        "lat": 47.658075250443986,
        "lon": -118.93584102063686,
        "alt_km": 21517.694095967414,
        "timestamp": "2025-12-12T22:42:12.811048+00:00",
        "meta_object_name": "BEIDOU-3 M18 (C37)",
        "meta_object_id": "2018-093B",
        "meta_epoch": "2025-12-11T18:34:39.857952",
        "meta_mean_motion": 1.8622663,
        "meta_eccentricity": 0.00063207,
        "meta_inclination": 54.1731,
        "meta_ra_of_asc_node": 188.6462,
        "meta_arg_of_pericenter": 352.4286,
        "meta_mean_anomaly": 7.6208,
        "meta_ephemeris_type": 0,
        "meta_classification_type": "U",
        "meta_norad_cat_id": 43707,
        "meta_element_set_no": 999,
        "meta_rev_at_epoch": 4804,
        "meta_bstar": 0,
        "meta_mean_motion_dot": 7.2e-07,
        "meta_mean_motion_ddot": 0,
        "tle_line1": "1 43707U 18093B   25345.77407243  .00000072  00000+0  00000+0 0  9992",
        "tle_line2": "2 43707  54.1731 188.6462 0006320 352.4286   7.6208  1.86226630 48043"
      },
      "geometry": {
        "type": "Point",
        "coordinates": [
          -118.93584102063686,
          47.658075250443986
        ]
      }
    },
    {
      "type": "Feature",
      "properties": {
        "norad_id": 44204,
        "name": "BEIDOU-3 IGSO-1 (C38)",
        "group": "beidou",
        "lat": 36.60887220059684,
        "lon": -167.53475572945638,
        "alt_km": 35781.22241733187,
        "timestamp": "2025-12-12T22:42:12.811060+00:00",
        "meta_object_name": "BEIDOU-3 IGSO-1 (C38)",
        "meta_object_id": "2019-023A",
        "meta_epoch": "2025-11-19T14:15:02.708640",
        "meta_mean_motion": 1.00252177,
        "meta_eccentricity": 0.0026966,
        "meta_inclination": 58.4003,
        "meta_ra_of_asc_node": 39.8168,
        "meta_arg_of_pericenter": 221.2202,
        "meta_mean_anomaly": 126.9723,
        "meta_ephemeris_type": 0,
        "meta_classification_type": "U",
        "meta_norad_cat_id": 44204,
        "meta_element_set_no": 999,
        "meta_rev_at_epoch": 510,
        "meta_bstar": 0,
        "meta_mean_motion_dot": -2.26e-06,
        "meta_mean_motion_ddot": 0,
        "tle_line1": "1 44204U 19023A   25323.59378135 -.00000226  00000+0  00000+0 0  9994",
        "tle_line2": "2 44204  58.4003  39.8168 0026966 221.2202 126.9723  1.00252177  5102"
      },
      "geometry": {
        "type": "Point",
        "coordinates": [
          -167.53475572945638,
          36.60887220059684
        ]
      }
    },
    {
      "type": "Feature",
      "properties": {
        "norad_id": 44231,
        "name": "BEIDOU-2 G8 (C01)",
        "group": "beidou",
        "lat": 1.218119401362648,
        "lon": -153.14525464862427,
        "alt_km": 35807.1319731994,
        "timestamp": "2025-12-12T22:42:12.811087+00:00",
        "meta_object_name": "BEIDOU-2 G8 (C01)",
        "meta_object_id": "2019-027A",
        "meta_epoch": "2025-12-12T07:19:09.060672",
        "meta_mean_motion": 1.00267912,
        "meta_eccentricity": 0.00086732,
        "meta_inclination": 1.6611,
        "meta_ra_of_asc_node": 74.7001,
        "meta_arg_of_pericenter": 255.6977,
        "meta_mean_anomaly": 5.1435,
        "meta_ephemeris_type": 0,
        "meta_classification_type": "U",
        "meta_norad_cat_id": 44231,
        "meta_element_set_no": 999,
        "meta_rev_at_epoch": 2420,
        "meta_bstar": 0,
        "meta_mean_motion_dot": -2.38e-06,
        "meta_mean_motion_ddot": 0,
        "tle_line1": "1 44231U 19027A   25346.30496598 -.00000238  00000+0  00000+0 0  9999",
        "tle_line2": "2 44231   1.6611  74.7001 0008673 255.6977   5.1435  1.00267912 24209"
      },
      "geometry": {
        "type": "Point",
        "coordinates": [
          -153.14525464862427,
          1.218119401362648
        ]
      }
    },
    {
      "type": "Feature",
      "properties": {
        "norad_id": 44337,
        "name": "BEIDOU-3 IGSO-2 (C39)",
        "group": "beidou",
        "lat": 17.47035928486565,
        "lon": 173.1353589876205,
        "alt_km": 35942.03425186588,
        "timestamp": "2025-12-12T22:42:12.811108+00:00",
        "meta_object_name": "BEIDOU-3 IGSO-2 (C39)",
        "meta_object_id": "2019-035A",
        "meta_epoch": "2025-12-10T21:20:38.716800",
        "meta_mean_motion": 1.00271557,
        "meta_eccentricity": 0.00373373,
        "meta_inclination": 55.2247,
        "meta_ra_of_asc_node": 160.5169,
        "meta_arg_of_pericenter": 202.3364,
        "meta_mean_anomaly": 156.6887,
        "meta_ephemeris_type": 0,
        "meta_classification_type": "U",
        "meta_norad_cat_id": 44337,
        "meta_element_set_no": 999,
        "meta_rev_at_epoch": 2377,
        "meta_bstar": 0,
        "meta_mean_motion_dot": -6.6e-07,
        "meta_mean_motion_ddot": 0,
        "tle_line1": "1 44337U 19035A   25344.88933700 -.00000066  00000+0  00000+0 0  9996",
        "tle_line2": "2 44337  55.2247 160.5169 0037337 202.3364 156.6887  1.00271557 23777"
      },
      "geometry": {
        "type": "Point",
        "coordinates": [
          173.1353589876205,
          17.47035928486565
        ]
      }
    },
    {
      "type": "Feature",
      "properties": {
        "norad_id": 44542,
        "name": "BEIDOU-3 M24 (C46)",
        "group": "beidou",
        "lat": 14.619637156471564,
        "lon": -160.2135386454736,
        "alt_km": 21500.063951622247,
        "timestamp": "2025-12-12T22:42:12.811121+00:00",
        "meta_object_name": "BEIDOU-3 M24 (C46)",
        "meta_object_id": "2019-061A",
        "meta_epoch": "2025-12-11T20:16:59.930112",
        "meta_mean_motion": 1.86229199,
        "meta_eccentricity": 0.00095416,
        "meta_inclination": 54.4002,
        "meta_ra_of_asc_node": 189.0463,
        "meta_arg_of_pericenter": 24.13,
        "meta_mean_anomaly": 335.9744,
        "meta_ephemeris_type": 0,
        "meta_classification_type": "U",
        "meta_norad_cat_id": 44542,
        "meta_element_set_no": 999,
        "meta_rev_at_epoch": 4230,
        "meta_bstar": 0,
        "meta_mean_motion_dot": 7.3e-07,
        "meta_mean_motion_ddot": 0,
        "tle_line1": "1 44542U 19061A   25345.84513808  .00000073  00000+0  00000+0 0  9990",
        "tle_line2": "2 44542  54.4002 189.0463 0009541  24.1300 335.9744  1.86229199 42307"
      },
      "geometry": {
        "type": "Point",
        "coordinates": [
          -160.2135386454736,
          14.619637156471564
        ]
      }
    },
    {
      "type": "Feature",
      "properties": {
        "norad_id": 44543,
        "name": "BEIDOU-3 M23 (C45)",
        "group": "beidou",
        "lat": -49.45171545506355,
        "lon": 132.1071339900952,
        "alt_km": 21534.65672939679,
        "timestamp": "2025-12-12T22:42:12.811133+00:00",
        "meta_object_name": "BEIDOU-3 M23 (C45)",
        "meta_object_id": "2019-061B",
        "meta_epoch": "2025-12-12T05:53:39.748416",
        "meta_mean_motion": 1.86227487,
        "meta_eccentricity": 0.00061471,
        "meta_inclination": 54.3988,
        "meta_ra_of_asc_node": 189.0008,
        "meta_arg_of_pericenter": 23.325,
        "meta_mean_anomaly": 158.0349,
        "meta_ephemeris_type": 0,
        "meta_classification_type": "U",
        "meta_norad_cat_id": 44543,
        "meta_element_set_no": 999,
        "meta_rev_at_epoch": 4231,
        "meta_bstar": 0,
        "meta_mean_motion_dot": 7.9e-07,
        "meta_mean_motion_ddot": 0,
        "tle_line1": "1 44543U 19061B   25346.24559894  .00000079  00000+0  00000+0 0  9997",
        "tle_line2": "2 44543  54.3988 189.0008 0006147  23.3250 158.0349  1.86227487 42313"
      },
      "geometry": {
        "type": "Point",
        "coordinates": [
          132.1071339900952,
          -49.45171545506355
        ]
      }
    }
  ]
}